NORAD_CAT_ID,OBJECT_NAME,OBJECT_TYPE,EPOCH,MEAN_MOTION,ECCENTRICITY,INCLINATION,RA_OF_ASC_NODE,ARG_OF_PERICENTER,MEAN_ANOMALY,BSTAR,MEAN_MOTION_DOT,MEAN_MOTION_DDOT,TLE_LINE0,TLE_LINE1,TLE_LINE2,SEMIMAJOR_AXIS,PERIOD,APOGEE,PERIGEE,DECAYED
53147.0,STARLINK-4094,PAYLOAD,2023-06-16 17:13:05,15.08853528,0.0001257,53.2167,329.7038,99.6016,260.5118,0.00024633,3.636e-05,0.0,0 STARLINK-4094,1 53147U 22083R   23167.71742038  .00003636  00000-0  24633-3 0  9995,2 53147  53.2167 329.7038 0001257  99.6016 260.5118 15.08853528 51367,6917.839,95.437,540.574,538.834,0.0
53147.0,STARLINK-4094,PAYLOAD,2023-06-17 10:42:20,15.08832945,0.0001619,53.2166,326.4328,98.248,261.8695,-3.522e-05,-8.48e-06,0.0,0 STARLINK-4094,1 53147U 22083R   23168.44607200 -.00000848  00000-0 -35220-4 0  9996,2 53147  53.2166 326.4328 0001619  98.2480 261.8695 15.08832945 51458,6917.902,95.438,540.887,538.647,0.0
53147.0,STARLINK-4094,PAYLOAD,2023-06-17 17:03:53,15.08825272,0.0001069,53.2163,325.2435,106.129,253.982,-0.00019411,-3.374e-05,0.0,0 STARLINK-4094,1 53147U 22083R   23168.71103374 -.00003374  00000-0 -19411-3 0  9999,2 53147  53.2163 325.2435 0001069 106.1290 253.9820 15.08825272 51512,6917.925,95.438,540.53,539.051,0.0
53147.0,STARLINK-4094,PAYLOAD,2023-06-18 10:33:07,15.0884036,0.0001029,53.2166,321.9738,105.1088,255.0018,0.00023471,3.45e-05,0.0,0 STARLINK-4094,1 53147U 22083R   23169.43967400  .00003450  00000-0  23471-3 0  9991,2 53147  53.2166 321.9738 0001029 105.1088 255.0018 15.08840360 51623,6917.879,95.438,540.456,539.032,0.0
53147.0,STARLINK-4094,PAYLOAD,2023-06-18 16:54:40,15.08849736,9.57e-05,53.2168,320.7838,108.0588,252.0508,0.00059611,9.214e-05,0.0,0 STARLINK-4094,1 53147U 22083R   23169.70463280  .00009214  00000-0  59611-3 0  9997,2 53147  53.2168 320.7838 0000957 108.0588 252.0508 15.08849736 51648,6917.851,95.437,540.378,539.054,0.0
53147.0,STARLINK-4094,PAYLOAD,2023-06-18 20:05:26,15.08854059,9.72e-05,53.2168,320.1888,108.0103,252.0995,0.000996,0.00015605,0.0,0 STARLINK-4094,1 53147U 22083R   23169.83711430  .00015605  00000-0  99600-3 0  9997,2 53147  53.2168 320.1888 0000972 108.0103 252.0995 15.08854059 51685,6917.837,95.437,540.375,539.03,0.0
53147.0,STARLINK-4094,PAYLOAD,2023-06-19 10:23:54,15.088567,9.2e-05,53.217,317.5117,101.1198,258.9897,0.00065658,0.00010182,0.0,0 STARLINK-4094,1 53147U 22083R   23170.43327331  .00010182  00000-0  65658-3 0  9999,2 53147  53.2170 317.5117 0000920 101.1198 258.9897 15.08856700 51753,6917.829,95.436,540.331,539.058,0.0
53147.0,STARLINK-4094,PAYLOAD,2023-06-19 16:45:27,15.08856716,9.14e-05,53.2169,316.3229,101.6315,258.478,0.00058934,9.108e-05,0.0,0 STARLINK-4094,1 53147U 22083R   23170.69823134  .00009108  00000-0  58934-3 0  9994,2 53147  53.2169 316.3229 0000914 101.6315 258.4780 15.08856716 51811,6917.829,95.436,540.327,539.062,0.0
53147.0,STARLINK-4094,PAYLOAD,2023-06-20 02:17:45,15.0885235,6.37e-05,53.2176,314.5395,84.9673,275.1392,0.00069007,0.00010715,0.0,0 STARLINK-4094,1 53147U 22083R   23171.09567037  .00010715  00000-0  69007-3 0  9995,2 53147  53.2176 314.5395 0000637  84.9673 275.1392 15.08852350 51854,6917.843,95.437,540.148,539.267,0.0
53147.0,STARLINK-4094,PAYLOAD,2023-06-20 16:36:14,15.08847786,8.39e-05,53.2169,311.8635,86.335,273.7738,0.00035793,5.414e-05,0.0,0 STARLINK-4094,1 53147U 22083R   23171.69183133  .00005414  00000-0  35793-3 0  9997,2 53147  53.2169 311.8635 0000839  86.3350 273.7738 15.08847786 51940,6917.857,95.437,540.302,539.141,0.0
53147.0,STARLINK-4094,PAYLOAD,2023-06-20 18:11:37,15.08850684,8.41e-05,53.2169,311.5661,84.7557,275.3531,0.00035482,5.365e-05,0.0,0 STARLINK-4094,1 53147U 22083R   23171.75807032  .00005365  00000-0  35482-3 0  9995,2 53147  53.2169 311.5661 0000841  84.7557 275.3531 15.08850684 51973,6917.848,95.437,540.295,539.131,0.0
53147.0,STARLINK-4094,PAYLOAD,2023-06-21 08:30:05,15.08839056,0.0001052,53.2164,308.8897,86.9593,273.152,3.2963e-05,2.37e-06,0.0,0 STARLINK-4094,1 53147U 22083R   23172.35423419  .00000237  00000-0  32963-4 0  9990,2 53147  53.2164 308.8897 0001052  86.9593 273.1520 15.08839056 52040,6917.883,95.438,540.476,539.021,0.0
53147.0,STARLINK-4094,PAYLOAD,2023-06-21 13:16:15,15.08839433,0.0001052,53.2165,307.9976,88.369,271.7422,3.0976e-05,2.05e-06,0.0,0 STARLINK-4094,1 53147U 22083R   23172.55295490  .00000205  00000-0  30976-4 0  9995,2 53147  53.2165 307.9976 0001052  88.3690 271.7422 15.08839433 52092,6917.882,95.438,540.475,539.019,0.0
53147.0,STARLINK-4094,PAYLOAD,2023-06-21 16:27:01,15.08842353,9.59e-05,53.2169,307.4029,83.9998,276.1104,6.7707e-05,7.9e-06,0.0,0 STARLINK-4094,1 53147U 22083R   23172.68543358  .00000790  00000-0  67707-4 0  9999,2 53147  53.2169 307.4029 0000959  83.9998 276.1104 15.08842353 52111,6917.873,95.437,540.402,539.075,0.0
53147.0,STARLINK-4094,PAYLOAD,2023-06-22 16:17:48,15.08843891,8.27e-05,53.2165,302.9432,93.3605,266.7482,7.9759e-05,9.82e-06,0.0,0 STARLINK-4094,1 53147U 22083R   23173.67903430  .00000982  00000-0  79759-4 0  9993,2 53147  53.2165 302.9432 0000827  93.3605 266.7482 15.08843891 52245,6917.868,95.437,540.306,539.161,0.0
53147.0,STARLINK-4094,PAYLOAD,2023-06-24 01:40:54,15.08845329,7.58e-05,53.2162,296.697,92.2643,267.8436,0.00013478,1.858e-05,0.0,0 STARLINK-4094,1 53147U 22083R   23175.07007405  .00001858  00000-0  13478-3 0  9994,2 53147  53.2162 296.6970 0000758  92.2643 267.8436 15.08845329 52453,6917.864,95.437,540.253,539.205,0.0
53147.0,STARLINK-4094,PAYLOAD,2023-06-24 08:02:27,15.08839135,0.0001392,53.2162,295.5093,81.8295,278.2855,0.00012714,1.736e-05,0.0,0 STARLINK-4094,1 53147U 22083R   23175.33504050  .00001736  00000-0  12714-3 0  9998,2 53147  53.2162 295.5093 0001392  81.8295 278.2855 15.08839135 52492,6917.883,95.438,540.711,538.785,0.0
53147.0,STARLINK-4094,PAYLOAD,2023-06-25 14:14:47,15.08842785,0.0001006,53.2167,289.86,75.0876,285.0228,0.00010397,1.367e-05,0.0,0 STARLINK-4094,1 53147U 22083R   23176.59359960  .00001367  00000-0  10397-3 0  9990,2 53147  53.2167 289.8600 0001006  75.0876 285.0228 15.08842785 52685,6917.872,95.437,540.433,539.041,0.0
53147.0,STARLINK-4094,PAYLOAD,2023-06-25 19:00:55,15.0885304,9.03e-05,53.2168,288.9662,95.4,264.7096,0.00020677,3.006e-05,0.0,0 STARLINK-4094,1 53147U 22083R   23176.79231302  .00003006  00000-0  20677-3 0  9995,2 53147  53.2168 288.9662 0000903  95.4000 264.7096 15.08853040 52711,6917.841,95.437,540.33,539.081,0.0
53147.0,STARLINK-4094,PAYLOAD,2023-06-26 09:19:25,15.08832529,0.0001173,53.2166,286.2908,107.6068,252.5052,7.7442e-05,9.45e-06,0.0,0 STARLINK-4094,1 53147U 22083R   23177.38848605  .00000945  00000-0  77442-4 0  9993,2 53147  53.2166 286.2908 0001173 107.6068 252.5052 15.08832529 52809,6917.903,95.438,540.58,538.957,0.0
53147.0,STARLINK-4094,PAYLOAD,2023-06-26 17:16:20,15.08841186,0.0001076,53.2166,284.8044,98.8804,261.231,0.0001638,2.32e-05,0.0,0 STARLINK-4094,1 53147U 22083R   23177.71968325  .00002320  00000-0  16380-3 0  9994,2 53147  53.2166 284.8044 0001076  98.8804 261.2310 15.08841186 52853,6917.877,95.437,540.486,538.997,0.0
53147.0,STARLINK-4094,PAYLOAD,2023-06-27 23:28:40,15.0884484,9.41e-05,53.2164,279.1558,103.2778,256.8319,0.00017998,2.578e-05,0.0,0 STARLINK-4094,1 53147U 22083R   23178.97824308  .00002578  00000-0  17998-3 0  9996,2 53147  53.2164 279.1558 0000941 103.2778 256.8319 15.08844840 53040,6917.866,95.437,540.382,539.08,0.0
53147.0,STARLINK-4094,PAYLOAD,2023-06-28 23:19:27,15.08840068,9.84e-05,53.2172,274.6948,99.156,260.9543,1.4993e-05,-4.9e-07,0.0,0 STARLINK-4094,1 53147U 22083R   23179.97184271 -.00000049  00000-0  14993-4 0  9990,2 53147  53.2172 274.6948 0000984  99.1560 260.9543 15.08840068 53190,6917.88,95.438,540.426,539.064,0.0
53147.0,STARLINK-4094,PAYLOAD,2023-06-30 23:01:01,15.08839812,0.0001246,53.2162,265.7742,76.3691,283.744,-9.0276e-06,-4.32e-06,0.0,0 STARLINK-4094,1 53147U 22083R   23181.95904353 -.00000432  00000-0 -90276-5 0  9998,2 53147  53.2162 265.7742 0001246  76.3691 283.7440 15.08839812 53493,6917.881,95.438,540.608,538.884,0.0
53147.0,STARLINK-4094,PAYLOAD,2023-07-02 11:34:53,15.08846474,9.38e-05,53.2166,258.9327,79.172,280.9377,4.9858e-05,5.06e-06,0.0,0 STARLINK-4094,1 53147U 22083R   23183.48256186  .00000506  00000-0  49858-4 0  9991,2 53147  53.2166 258.9327 0000938  79.1720 280.9377 15.08846474 53727,6917.861,95.437,540.374,539.077,0.0
53147.0,STARLINK-4094,PAYLOAD,2023-07-03 14:36:26,15.08849196,0.0001018,53.2157,253.878,69.1048,291.0053,0.00023428,3.444e-05,0.0,0 STARLINK-4094,1 53147U 22083R   23184.60864012  .00003444  00000-0  23428-3 0  9997,2 53147  53.2157 253.8780 0001018  69.1048 291.0053 15.08849196 53892,6917.852,95.437,540.422,539.013,0.0
53147.0,STARLINK-4094,PAYLOAD,2023-07-04 11:16:27,15.08839209,9.82e-05,53.2166,250.0126,76.2304,283.8797,4.9102e-05,4.94e-06,0.0,0 STARLINK-4094,1 53147U 22083R   23185.46976791  .00000494  00000-0  49102-4 0  9990,2 53147  53.2166 250.0126 0000982  76.2304 283.8797 15.08839209 54022,6917.883,95.438,540.427,539.068,0.0
53147.0,STARLINK-4094,PAYLOAD,2023-07-05 12:42:37,15.08840414,9.82e-05,53.2154,245.2547,73.4824,286.6276,4.2886e-05,3.95e-06,0.0,0 STARLINK-4094,1 53147U 22083R   23186.52960603  .00000395  00000-0  42886-4 0  9995,2 53147  53.2154 245.2547 0000982  73.4824 286.6276 15.08840414 54188,6917.879,95.438,540.423,539.065,0.0
53147.0,STARLINK-4094,PAYLOAD,2023-07-06 03:01:06,15.08833487,9.78e-05,53.2153,242.5787,73.2816,286.8283,8.1771e-05,1.014e-05,0.0,0 STARLINK-4094,1 53147U 22083R   23187.12577180  .00001014  00000-0  81771-4 0  9991,2 53147  53.2153 242.5787 0000978  73.2816 286.8283 15.08833487 54279,6917.9,95.438,540.442,539.089,0.0
53147.0,STARLINK-4094,PAYLOAD,2023-07-07 10:48:50,15.08823858,0.0001209,53.2153,236.6317,58.2461,301.8649,-0.00013075,-2.367e-05,0.0,0 STARLINK-4094,1 53147U 22083R   23188.45058063 -.00002367  00000-0 -13075-3 0  9997,2 53147  53.2153 236.6317 0001209  58.2461 301.8649 15.08823858 54476,6917.93,95.439,540.631,538.958,0.0
